{"type":"Feature","properties":{"name":"Pilot Project"},"geometry":{"type":"Polygon","coordinates":[[[0.2762,0.6117],[0.3073,0.6106],[0.34,0.6221],[0.3481,0.6272],[0.3708,0.6303],[0.378,0.6254],[0.387,0.6251],[0.394,0.6172],[0.4108,0.6066],[0.4172,0.5868],[0.4274,0.5721],[0.4357,0.564],[0.4418,0.5607],[0.4413,0.5577],[0.4182,0.5626],[0.3884,0.561],[0.3838,0.5638],[0.3795,0.5613],[0.3621,0.5593],[0.3418,0.5676],[0.3197,0.5637],[0.2917,0.5652],[0.2827,0.5558],[0.2768,0.5548],[0.2769,0.5979],[0.2762,0.6117]]]}}